[
    {
        "Altitude(m)": 707309.5021284532,
        "Argument of Periapsis(deg)": 0.007973084830638947,
        "Eccentricity": 0.0,
        "Inclination(deg)": 45.0,
        "Latitude(deg)": 45.15434063826321,
        "Longitude(deg)": 99.32529430539547,
        "Mean Anomaly(deg)": 89.89145165323659,
        "RAAN(deg)": 109.99247364097926,
        "Satellite Name": "Constellation 1 489",
        "Satellite Number": 489,
        "Semi-Major Axis(m)": 7083131.272910544,
        "Time(s)": 133
    },
    {
        "Altitude(m)": 707309.5265116509,
        "Argument of Periapsis(deg)": 0.008033032836884352,
        "Eccentricity": 0.0,
        "Inclination(deg)": 45.0,
        "Latitude(deg)": 45.1544151046363,
        "Longitude(deg)": 99.4070794861218,
        "Mean Anomaly(deg)": 89.95215279348646,
        "RAAN(deg)": 109.99241705181367,
        "Satellite Name": "Constellation 1 489",
        "Satellite Number": 489,
        "Semi-Major Axis(m)": 7083131.272910544,
        "Time(s)": 134
    },
    {
        "Altitude(m)": 707309.5362556344,
        "Argument of Periapsis(deg)": 0.008092980843129758,
        "Eccentricity": 0.0,
        "Inclination(deg)": 45.0,
        "Latitude(deg)": 45.15442500010945,
        "Longitude(deg)": 99.48886479330744,
        "Mean Anomaly(deg)": 90.01285393373638,
        "RAAN(deg)": 109.99236046264812,
        "Satellite Name": "Constellation 1 489",
        "Satellite Number": 489,
        "Semi-Major Axis(m)": 7083131.272910544,
        "Time(s)": 135
    },
    {
        "Altitude(m)": 707309.5313603848,
        "Argument of Periapsis(deg)": 0.008152928849375162,
        "Eccentricity": 0.0,
        "Inclination(deg)": 45.0,
        "Latitude(deg)": 45.1543703246388,
        "Longitude(deg)": 99.57065003308925,
        "Mean Anomaly(deg)": 90.07355507398627,
        "RAAN(deg)": 109.99230387348256,
        "Satellite Name": "Constellation 1 489",
        "Satellite Number": 489,
        "Semi-Major Axis(m)": 7083131.272910544,
        "Time(s)": 136
    },
    {
        "Altitude(m)": 707309.5118259664,
        "Argument of Periapsis(deg)": 0.008212876855620568,
        "Eccentricity": 0.0,
        "Inclination(deg)": 45.0,
        "Latitude(deg)": 45.15425107846918,
        "Longitude(deg)": 99.65243501160529,
        "Mean Anomaly(deg)": 90.1342562142362,
        "RAAN(deg)": 109.99224728431697,
        "Satellite Name": "Constellation 1 489",
        "Satellite Number": 489,
        "Semi-Major Axis(m)": 7083131.272910544,
        "Time(s)": 137
    },
    {
        "Altitude(m)": 707309.4776525262,
        "Argument of Periapsis(deg)": 0.008272824861865974,
        "Eccentricity": 0.0,
        "Inclination(deg)": 45.0,
        "Latitude(deg)": 45.154067262134106,
        "Longitude(deg)": 99.73421953499827,
        "Mean Anomaly(deg)": 90.19495735448608,
        "RAAN(deg)": 109.99219069515141,
        "Satellite Name": "Constellation 1 489",
        "Satellite Number": 489,
        "Semi-Major Axis(m)": 7083131.272910544,
        "Time(s)": 138
    },
    {
        "Altitude(m)": 707309.4288403015,
        "Argument of Periapsis(deg)": 0.00833277286811138,
        "Eccentricity": 0.0,
        "Inclination(deg)": 45.0,
        "Latitude(deg)": 45.153818876455674,
        "Longitude(deg)": 99.81600340941935,
        "Mean Anomaly(deg)": 90.255658494736,
        "RAAN(deg)": 109.99213410598585,
        "Satellite Name": "Constellation 1 489",
        "Satellite Number": 489,
        "Semi-Major Axis(m)": 7083131.272910544,
        "Time(s)": 139
    },
    {
        "Altitude(m)": 707309.3653896139,
        "Argument of Periapsis(deg)": 0.008392720874356788,
        "Eccentricity": 0.0,
        "Inclination(deg)": 45.0,
        "Latitude(deg)": 45.15350592254458,
        "Longitude(deg)": 99.89778644103112,
        "Mean Anomaly(deg)": 90.31635963498589,
        "RAAN(deg)": 109.99207751682027,
        "Satellite Name": "Constellation 1 489",
        "Satellite Number": 489,
        "Semi-Major Axis(m)": 7083131.272910544,
        "Time(s)": 140
    },
    {
        "Altitude(m)": 707309.2873008691,
        "Argument of Periapsis(deg)": 0.008452668880602192,
        "Eccentricity": 0.0,
        "Inclination(deg)": 45.0,
        "Latitude(deg)": 45.1531284018002,
        "Longitude(deg)": 99.97956826791419,
        "Mean Anomaly(deg)": 90.37706077523578,
        "RAAN(deg)": 109.9920209276547,
        "Satellite Name": "Constellation 1 489",
        "Satellite Number": 489,
        "Semi-Major Axis(m)": 7083131.272910544,
        "Time(s)": 141
    },
    {
        "Altitude(m)": 707309.1945745557,
        "Argument of Periapsis(deg)": 0.008512616886847598,
        "Eccentricity": 0.0,
        "Inclination(deg)": 45.0,
        "Latitude(deg)": 45.15268631591044,
        "Longitude(deg)": 100.06134903245972,
        "Mean Anomaly(deg)": 90.43776191548565,
        "RAAN(deg)": 109.99196433848913,
        "Satellite Name": "Constellation 1 489",
        "Satellite Number": 489,
        "Semi-Major Axis(m)": 7083131.272910544,
        "Time(s)": 142
    },
    {
        "Altitude(m)": 707309.0872112551,
        "Argument of Periapsis(deg)": 0.008572564893093004,
        "Eccentricity": 0.0,
        "Inclination(deg)": 45.0,
        "Latitude(deg)": 45.15217966685166,
        "Longitude(deg)": 100.14312837278925,
        "Mean Anomaly(deg)": 90.49846305573556,
        "RAAN(deg)": 109.99190774932356,
        "Satellite Name": "Constellation 1 489",
        "Satellite Number": 489,
        "Semi-Major Axis(m)": 7083131.272910544,
        "Time(s)": 143
    },
    {
        "Altitude(m)": 707308.9652116272,
        "Argument of Periapsis(deg)": 0.008632512899338408,
        "Eccentricity": 0.0,
        "Inclination(deg)": 45.0,
        "Latitude(deg)": 45.151608456888845,
        "Longitude(deg)": 100.22490609514718,
        "Mean Anomaly(deg)": 90.55916419598547,
        "RAAN(deg)": 109.991851160158,
        "Satellite Name": "Constellation 1 489",
        "Satellite Number": 489,
        "Semi-Major Axis(m)": 7083131.272910544,
        "Time(s)": 144
    },
    {
        "Altitude(m)": 707308.8285764223,
        "Argument of Periapsis(deg)": 0.008692460905583814,
        "Eccentricity": 0.0,
        "Inclination(deg)": 45.0,
        "Latitude(deg)": 45.15097268857534,
        "Longitude(deg)": 100.30668200580705,
        "Mean Anomaly(deg)": 90.61986533623536,
        "RAAN(deg)": 109.99179457099243,
        "Satellite Name": "Constellation 1 489",
        "Satellite Number": 489,
        "Semi-Major Axis(m)": 7083131.272910544,
        "Time(s)": 145
    },
    {
        "Altitude(m)": 707308.6773064776,
        "Argument of Periapsis(deg)": 0.00875240891182922,
        "Eccentricity": 0.0,
        "Inclination(deg)": 45.0,
        "Latitude(deg)": 45.15027236475283,
        "Longitude(deg)": 100.38845591107503,
        "Mean Anomaly(deg)": 90.68056647648525,
        "RAAN(deg)": 109.99173798182686,
        "Satellite Name": "Constellation 1 489",
        "Satellite Number": 489,
        "Semi-Major Axis(m)": 7083131.272910544,
        "Time(s)": 146
    },
    {
        "Altitude(m)": 707308.5114027035,
        "Argument of Periapsis(deg)": 0.008812356918074627,
        "Eccentricity": 0.0,
        "Inclination(deg)": 45.0,
        "Latitude(deg)": 45.149507488551464,
        "Longitude(deg)": 100.47022761729365,
        "Mean Anomaly(deg)": 90.74126761673521,
        "RAAN(deg)": 109.99168139266129,
        "Satellite Name": "Constellation 1 489",
        "Satellite Number": 489,
        "Semi-Major Axis(m)": 7083131.272910544,
        "Time(s)": 147
    },
    {
        "Altitude(m)": 707308.3308661145,
        "Argument of Periapsis(deg)": 0.008872304924320031,
        "Eccentricity": 0.0,
        "Inclination(deg)": 45.0,
        "Latitude(deg)": 45.14867806338952,
        "Longitude(deg)": 100.55199676274734,
        "Mean Anomaly(deg)": 90.80196875698505,
        "RAAN(deg)": 109.99162480349571,
        "Satellite Name": "Constellation 1 489",
        "Satellite Number": 489,
        "Semi-Major Axis(m)": 7083131.272910544,
        "Time(s)": 148
    },
    {
        "Altitude(m)": 707308.1356977946,
        "Argument of Periapsis(deg)": 0.008932252930565437,
        "Eccentricity": 0.0,
        "Inclination(deg)": 45.0,
        "Latitude(deg)": 45.14778409297352,
        "Longitude(deg)": 100.63376349005613,
        "Mean Anomaly(deg)": 90.86266989723498,
        "RAAN(deg)": 109.99156821433014,
        "Satellite Name": "Constellation 1 489",
        "Satellite Number": 489,
        "Semi-Major Axis(m)": 7083131.272910544,
        "Time(s)": 149
    },
    {
        "Altitude(m)": 707307.9258989234,
        "Argument of Periapsis(deg)": 0.008992200936810843,
        "Eccentricity": 0.0,
        "Inclination(deg)": 45.0,
        "Latitude(deg)": 45.146825581298046,
        "Longitude(deg)": 100.71552743759413,
        "Mean Anomaly(deg)": 90.92337103748484,
        "RAAN(deg)": 109.99151162516456,
        "Satellite Name": "Constellation 1 489",
        "Satellite Number": 489,
        "Semi-Major Axis(m)": 7083131.272910544,
        "Time(s)": 150
    },
    {
        "Altitude(m)": 707307.7014707605,
        "Argument of Periapsis(deg)": 0.009052148943056249,
        "Eccentricity": 0.0,
        "Inclination(deg)": 45.0,
        "Latitude(deg)": 45.14580253264573,
        "Longitude(deg)": 100.79728841188332,
        "Mean Anomaly(deg)": 90.98407217773476,
        "RAAN(deg)": 109.99145503599901,
        "Satellite Name": "Constellation 1 489",
        "Satellite Number": 489,
        "Semi-Major Axis(m)": 7083131.272910544,
        "Time(s)": 151
    }
]